[{"OBJECT_NAME":"STARLINK-34076","OBJECT_ID":"2025-095AB","EPOCH":"2026-03-09T07:55:06.215520","MEAN_MOTION":15.27588334,"ECCENTRICITY":6.723e-5,"INCLINATION":42.9964,"RA_OF_ASC_NODE":178.168,"ARG_OF_PERICENTER":245.5679,"MEAN_ANOMALY":114.5103,"EPHEMERIS_TYPE":0,"CLASSIFICATION_TYPE":"U","NORAD_CAT_ID":63915,"ELEMENT_SET_NO":999,"REV_AT_EPOCH":4772,"BSTAR":0.0015376144,"MEAN_MOTION_DOT":0.00042303,"MEAN_MOTION_DDOT":0},{"OBJECT_NAME":"GEOSCAN 4 (RS92S4)","OBJECT_ID":"2025-155S","EPOCH":"2026-03-09T21:50:07.724832","MEAN_MOTION":15.30369837,"ECCENTRICITY":0.00070968,"INCLINATION":97.4465,"RA_OF_ASC_NODE":37.7626,"ARG_OF_PERICENTER":154.7045,"MEAN_ANOMALY":205.4544,"EPHEMERIS_TYPE":0,"CLASSIFICATION_TYPE":"U","NORAD_CAT_ID":64892,"ELEMENT_SET_NO":999,"REV_AT_EPOCH":6562,"BSTAR":0.00068609503,"MEAN_MOTION_DOT":0.00020121,"MEAN_MOTION_DDOT":0}]
